ORBCOMM FM20            
1 25416U 98046D   24306.95540221  .00005172  00000+0  18047-2 0  9994
2 25416  44.9923 176.6313 0000189 112.7521 247.3346 14.36176216371585
ORBCOMM FM16            
1 25417U 98046E   24306.91585271  .00006315  00000+0  21345-2 0  9990
2 25417  44.9917 171.0732 0003611 226.2528 133.8021 14.37502710371531
ORBCOMM FM15            
1 25418U 98046F   24306.90876190  .00005993  00000+0  20417-2 0  9993
2 25418  44.9951 175.6110 0003159 229.6194 130.4379 14.37177103371536
ORBCOMM FM14            
1 25419U 98046G   24306.90756167  .00005998  00000+0  20326-2 0  9999
2 25419  44.9941 174.4321 0002155 212.6980 147.3734 14.37440137371494
ORBCOMM FM13            
1 25420U 98046H   24306.91359159  .00005431  00000+0  18807-2 0  9995
2 25420  44.9957 180.3900 0004248 212.2304 147.8285 14.36485390370543
ORBCOMM FM21            
1 25475U 98053A   24306.60080078  .00005352  00000+0  18608-2 0  9991
2 25475  45.0078 266.5059 0001072 295.4955  64.5782 14.36303584364519
ORBCOMM FM22            
1 25476U 98053B   24306.85133962  .00006884  00000+0  23441-2 0  9992
2 25476  45.0074 261.7746 0001020 183.5597 176.5243 14.37047754364553
ORBCOMM FM23            
1 25477U 98053C   24306.90109066  .00006059  00000+0  20969-2 0  9993
2 25477  45.0076 267.4456 0000631 230.7181 129.3611 14.36378609364705
