<?xml version="1.0" encoding="UTF-8"?>
<ndm xmlns:xsi="http://www.w3.org/2001/XMLSchema-instance" xsi:noNamespaceSchemaLocation="https://sanaregistry.org/r/ndmxml_unqualified/ndmxml-2.0.0-master-2.0.xsd">
<omm id="CCSDS_OMM_VERS" version="2.0">
<header><CREATION_DATE/><ORIGINATOR/></header><body><segment><metadata><OBJECT_NAME>ORBCOMM FM20</OBJECT_NAME><OBJECT_ID>1998-046D</OBJECT_ID><CENTER_NAME>EARTH</CENTER_NAME><REF_FRAME>TEME</REF_FRAME><TIME_SYSTEM>UTC</TIME_SYSTEM><MEAN_ELEMENT_THEORY>SGP4</MEAN_ELEMENT_THEORY></metadata><data><meanElements><EPOCH>2024-11-01T22:55:46.750944</EPOCH><MEAN_MOTION>14.36176216</MEAN_MOTION><ECCENTRICITY>.0000189</ECCENTRICITY><INCLINATION>44.9923</INCLINATION><RA_OF_ASC_NODE>176.6313</RA_OF_ASC_NODE><ARG_OF_PERICENTER>112.7521</ARG_OF_PERICENTER><MEAN_ANOMALY>247.3346</MEAN_ANOMALY></meanElements><tleParameters><EPHEMERIS_TYPE>0</EPHEMERIS_TYPE><CLASSIFICATION_TYPE>U</CLASSIFICATION_TYPE><NORAD_CAT_ID>25416</NORAD_CAT_ID><ELEMENT_SET_NO>999</ELEMENT_SET_NO><REV_AT_EPOCH>37158</REV_AT_EPOCH><BSTAR>.18047E-2</BSTAR><MEAN_MOTION_DOT>.5172E-4</MEAN_MOTION_DOT><MEAN_MOTION_DDOT>0</MEAN_MOTION_DDOT></tleParameters></data></segment></body></omm>
<omm id="CCSDS_OMM_VERS" version="2.0">
<header><CREATION_DATE/><ORIGINATOR/></header><body><segment><metadata><OBJECT_NAME>ORBCOMM FM16</OBJECT_NAME><OBJECT_ID>1998-046E</OBJECT_ID><CENTER_NAME>EARTH</CENTER_NAME><REF_FRAME>TEME</REF_FRAME><TIME_SYSTEM>UTC</TIME_SYSTEM><MEAN_ELEMENT_THEORY>SGP4</MEAN_ELEMENT_THEORY></metadata><data><meanElements><EPOCH>2024-11-01T21:58:49.674144</EPOCH><MEAN_MOTION>14.37502710</MEAN_MOTION><ECCENTRICITY>.0003611</ECCENTRICITY><INCLINATION>44.9917</INCLINATION><RA_OF_ASC_NODE>171.0732</RA_OF_ASC_NODE><ARG_OF_PERICENTER>226.2528</ARG_OF_PERICENTER><MEAN_ANOMALY>133.8021</MEAN_ANOMALY></meanElements><tleParameters><EPHEMERIS_TYPE>0</EPHEMERIS_TYPE><CLASSIFICATION_TYPE>U</CLASSIFICATION_TYPE><NORAD_CAT_ID>25417</NORAD_CAT_ID><ELEMENT_SET_NO>999</ELEMENT_SET_NO><REV_AT_EPOCH>37153</REV_AT_EPOCH><BSTAR>.21345E-2</BSTAR><MEAN_MOTION_DOT>.6315E-4</MEAN_MOTION_DOT><MEAN_MOTION_DDOT>0</MEAN_MOTION_DDOT></tleParameters></data></segment></body></omm>
<omm id="CCSDS_OMM_VERS" version="2.0">
<header><CREATION_DATE/><ORIGINATOR/></header><body><segment><metadata><OBJECT_NAME>ORBCOMM FM15</OBJECT_NAME><OBJECT_ID>1998-046F</OBJECT_ID><CENTER_NAME>EARTH</CENTER_NAME><REF_FRAME>TEME</REF_FRAME><TIME_SYSTEM>UTC</TIME_SYSTEM><MEAN_ELEMENT_THEORY>SGP4</MEAN_ELEMENT_THEORY></metadata><data><meanElements><EPOCH>2024-11-01T21:48:37.028160</EPOCH><MEAN_MOTION>14.37177103</MEAN_MOTION><ECCENTRICITY>.0003159</ECCENTRICITY><INCLINATION>44.9951</INCLINATION><RA_OF_ASC_NODE>175.6110</RA_OF_ASC_NODE><ARG_OF_PERICENTER>229.6194</ARG_OF_PERICENTER><MEAN_ANOMALY>130.4379</MEAN_ANOMALY></meanElements><tleParameters><EPHEMERIS_TYPE>0</EPHEMERIS_TYPE><CLASSIFICATION_TYPE>U</CLASSIFICATION_TYPE><NORAD_CAT_ID>25418</NORAD_CAT_ID><ELEMENT_SET_NO>999</ELEMENT_SET_NO><REV_AT_EPOCH>37153</REV_AT_EPOCH><BSTAR>.20417E-2</BSTAR><MEAN_MOTION_DOT>.5993E-4</MEAN_MOTION_DOT><MEAN_MOTION_DDOT>0</MEAN_MOTION_DDOT></tleParameters></data></segment></body></omm>
<omm id="CCSDS_OMM_VERS" version="2.0">
<header><CREATION_DATE/><ORIGINATOR/></header><body><segment><metadata><OBJECT_NAME>ORBCOMM FM14</OBJECT_NAME><OBJECT_ID>1998-046G</OBJECT_ID><CENTER_NAME>EARTH</CENTER_NAME><REF_FRAME>TEME</REF_FRAME><TIME_SYSTEM>UTC</TIME_SYSTEM><MEAN_ELEMENT_THEORY>SGP4</MEAN_ELEMENT_THEORY></metadata><data><meanElements><EPOCH>2024-11-01T21:46:53.328288</EPOCH><MEAN_MOTION>14.37440137</MEAN_MOTION><ECCENTRICITY>.0002155</ECCENTRICITY><INCLINATION>44.9941</INCLINATION><RA_OF_ASC_NODE>174.4321</RA_OF_ASC_NODE><ARG_OF_PERICENTER>212.6980</ARG_OF_PERICENTER><MEAN_ANOMALY>147.3734</MEAN_ANOMALY></meanElements><tleParameters><EPHEMERIS_TYPE>0</EPHEMERIS_TYPE><CLASSIFICATION_TYPE>U</CLASSIFICATION_TYPE><NORAD_CAT_ID>25419</NORAD_CAT_ID><ELEMENT_SET_NO>999</ELEMENT_SET_NO><REV_AT_EPOCH>37149</REV_AT_EPOCH><BSTAR>.20326E-2</BSTAR><MEAN_MOTION_DOT>.5998E-4</MEAN_MOTION_DOT><MEAN_MOTION_DDOT>0</MEAN_MOTION_DDOT></tleParameters></data></segment></body></omm>
<omm id="CCSDS_OMM_VERS" version="2.0">
<header><CREATION_DATE/><ORIGINATOR/></header><body><segment><metadata><OBJECT_NAME>ORBCOMM FM13</OBJECT_NAME><OBJECT_ID>1998-046H</OBJECT_ID><CENTER_NAME>EARTH</CENTER_NAME><REF_FRAME>TEME</REF_FRAME><TIME_SYSTEM>UTC</TIME_SYSTEM><MEAN_ELEMENT_THEORY>SGP4</MEAN_ELEMENT_THEORY></metadata><data><meanElements><EPOCH>2024-11-01T21:55:34.313376</EPOCH><MEAN_MOTION>14.36485390</MEAN_MOTION><ECCENTRICITY>.0004248</ECCENTRICITY><INCLINATION>44.9957</INCLINATION><RA_OF_ASC_NODE>180.3900</RA_OF_ASC_NODE><ARG_OF_PERICENTER>212.2304</ARG_OF_PERICENTER><MEAN_ANOMALY>147.8285</MEAN_ANOMALY></meanElements><tleParameters><EPHEMERIS_TYPE>0</EPHEMERIS_TYPE><CLASSIFICATION_TYPE>U</CLASSIFICATION_TYPE><NORAD_CAT_ID>25420</NORAD_CAT_ID><ELEMENT_SET_NO>999</ELEMENT_SET_NO><REV_AT_EPOCH>37054</REV_AT_EPOCH><BSTAR>.18807E-2</BSTAR><MEAN_MOTION_DOT>.5431E-4</MEAN_MOTION_DOT><MEAN_MOTION_DDOT>0</MEAN_MOTION_DDOT></tleParameters></data></segment></body></omm>
<omm id="CCSDS_OMM_VERS" version="2.0">
<header><CREATION_DATE/><ORIGINATOR/></header><body><segment><metadata><OBJECT_NAME>ORBCOMM FM21</OBJECT_NAME><OBJECT_ID>1998-053A</OBJECT_ID><CENTER_NAME>EARTH</CENTER_NAME><REF_FRAME>TEME</REF_FRAME><TIME_SYSTEM>UTC</TIME_SYSTEM><MEAN_ELEMENT_THEORY>SGP4</MEAN_ELEMENT_THEORY></metadata><data><meanElements><EPOCH>2024-11-01T14:25:09.187392</EPOCH><MEAN_MOTION>14.36303584</MEAN_MOTION><ECCENTRICITY>.0001072</ECCENTRICITY><INCLINATION>45.0078</INCLINATION><RA_OF_ASC_NODE>266.5059</RA_OF_ASC_NODE><ARG_OF_PERICENTER>295.4955</ARG_OF_PERICENTER><MEAN_ANOMALY>64.5782</MEAN_ANOMALY></meanElements><tleParameters><EPHEMERIS_TYPE>0</EPHEMERIS_TYPE><CLASSIFICATION_TYPE>U</CLASSIFICATION_TYPE><NORAD_CAT_ID>25475</NORAD_CAT_ID><ELEMENT_SET_NO>999</ELEMENT_SET_NO><REV_AT_EPOCH>36451</REV_AT_EPOCH><BSTAR>.18608E-2</BSTAR><MEAN_MOTION_DOT>.5352E-4</MEAN_MOTION_DOT><MEAN_MOTION_DDOT>0</MEAN_MOTION_DDOT></tleParameters></data></segment></body></omm>
<omm id="CCSDS_OMM_VERS" version="2.0">
<header><CREATION_DATE/><ORIGINATOR/></header><body><segment><metadata><OBJECT_NAME>ORBCOMM FM22</OBJECT_NAME><OBJECT_ID>1998-053B</OBJECT_ID><CENTER_NAME>EARTH</CENTER_NAME><REF_FRAME>TEME</REF_FRAME><TIME_SYSTEM>UTC</TIME_SYSTEM><MEAN_ELEMENT_THEORY>SGP4</MEAN_ELEMENT_THEORY></metadata><data><meanElements><EPOCH>2024-11-01T20:25:55.743168</EPOCH><MEAN_MOTION>14.37047754</MEAN_MOTION><ECCENTRICITY>.000102</ECCENTRICITY><INCLINATION>45.0074</INCLINATION><RA_OF_ASC_NODE>261.7746</RA_OF_ASC_NODE><ARG_OF_PERICENTER>183.5597</ARG_OF_PERICENTER><MEAN_ANOMALY>176.5243</MEAN_ANOMALY></meanElements><tleParameters><EPHEMERIS_TYPE>0</EPHEMERIS_TYPE><CLASSIFICATION_TYPE>U</CLASSIFICATION_TYPE><NORAD_CAT_ID>25476</NORAD_CAT_ID><ELEMENT_SET_NO>999</ELEMENT_SET_NO><REV_AT_EPOCH>36455</REV_AT_EPOCH><BSTAR>.23441E-2</BSTAR><MEAN_MOTION_DOT>.6884E-4</MEAN_MOTION_DOT><MEAN_MOTION_DDOT>0</MEAN_MOTION_DDOT></tleParameters></data></segment></body></omm>
<omm id="CCSDS_OMM_VERS" version="2.0">
<header><CREATION_DATE/><ORIGINATOR/></header><body><segment><metadata><OBJECT_NAME>ORBCOMM FM23</OBJECT_NAME><OBJECT_ID>1998-053C</OBJECT_ID><CENTER_NAME>EARTH</CENTER_NAME><REF_FRAME>TEME</REF_FRAME><TIME_SYSTEM>UTC</TIME_SYSTEM><MEAN_ELEMENT_THEORY>SGP4</MEAN_ELEMENT_THEORY></metadata><data><meanElements><EPOCH>2024-11-01T21:37:34.233024</EPOCH><MEAN_MOTION>14.36378609</MEAN_MOTION><ECCENTRICITY>.0000631</ECCENTRICITY><INCLINATION>45.0076</INCLINATION><RA_OF_ASC_NODE>267.4456</RA_OF_ASC_NODE><ARG_OF_PERICENTER>230.7181</ARG_OF_PERICENTER><MEAN_ANOMALY>129.3611</MEAN_ANOMALY></meanElements><tleParameters><EPHEMERIS_TYPE>0</EPHEMERIS_TYPE><CLASSIFICATION_TYPE>U</CLASSIFICATION_TYPE><NORAD_CAT_ID>25477</NORAD_CAT_ID><ELEMENT_SET_NO>999</ELEMENT_SET_NO><REV_AT_EPOCH>36470</REV_AT_EPOCH><BSTAR>.20969E-2</BSTAR><MEAN_MOTION_DOT>.6059E-4</MEAN_MOTION_DOT><MEAN_MOTION_DDOT>0</MEAN_MOTION_DDOT></tleParameters></data></segment></body></omm>

</ndm>
